[{"OBJECT_NAME":"STARLINK-4719","OBJECT_ID":"2022-111B","EPOCH":"2026-03-09T20:43:05.634624","MEAN_MOTION":15.08845552,"ECCENTRICITY":0.00012818,"INCLINATION":53.2162,"RA_OF_ASC_NODE":283.2276,"ARG_OF_PERICENTER":98.5226,"MEAN_ANOMALY":261.5912,"EPHEMERIS_TYPE":0,"CLASSIFICATION_TYPE":"U","NORAD_CAT_ID":53774,"ELEMENT_SET_NO":999,"REV_AT_EPOCH":19373,"BSTAR":8.1658288e-5,"MEAN_MOTION_DOT":1.012e-5,"MEAN_MOTION_DDOT":0},{"OBJECT_NAME":"COSMOS 252","OBJECT_ID":"1968-097A","EPOCH":"2026-03-09T07:24:26.509824","MEAN_MOTION":12.88259748,"ECCENTRICITY":0.10045094,"INCLINATION":62.3208,"RA_OF_ASC_NODE":37.8588,"ARG_OF_PERICENTER":34.9769,"MEAN_ANOMALY":331.3181,"EPHEMERIS_TYPE":0,"CLASSIFICATION_TYPE":"U","NORAD_CAT_ID":3530,"ELEMENT_SET_NO":999,"REV_AT_EPOCH":69308,"BSTAR":0.00016764967,"MEAN_MOTION_DOT":3.47e-6,"MEAN_MOTION_DDOT":0}]
